ORBCOMM FM37            
1 33064U 08031E   24263.13649597  .00004394  00000+0  63839-3 0  9990
2 33064  48.4396 190.2621 0005788 292.5754 159.5930 14.77474545874251
ORBCOMM FM40            
1 33065U 08031F   24263.22051406  .00005141  00000+0  71504-3 0  9996
2 33065  48.4416 177.8572 0006822 301.8603 216.3607 14.79060389874441
VESSELSAT 1             
1 37840U 11058C   24262.45583500  .00000558  00000+0  16035-3 0  9998
2 37840  19.9622 297.9909 0013828  77.9732 282.2221 14.11215953667870
ORBCOMM FM109           
1 40086U 14040A   24263.18329080  .00002376  00000+0  55823-3 0  9998
2 40086  47.0022 215.3438 0001423 168.3133 191.7785 14.57184216541643
ORBCOMM FM107           
1 40087U 14040B   24263.14928881  .00002042  00000+0  48532-3 0  9998
2 40087  47.0036 216.4938 0000622 117.8240 242.2708 14.57136323541636
ORBCOMM FM106           
1 40088U 14040C   24262.88036587  .00003069  00000+0  56360-3 0  9990
2 40088  47.0598  61.1003 0018634 246.9164 112.9762 14.67761010543801
ORBCOMM FM111           
1 40089U 14040D   24262.45858421  .00005647  00000+0  70531-3 0  9993
2 40089  47.0035 308.4430 0033287 332.6034  27.3105 14.83024441549847
ORBCOMM FM104           
1 40090U 14040E   24262.91517285  .00001934  00000+0  47669-3 0  9997
2 40090  47.0033 248.0169 0016586  42.9169 317.3007 14.55589568541084
